{"type": "FeatureCollection", "features": [ {"type": "Feature", "properties": {"norad_id": 33153, "name": "INTELSAT 25 (IS-25)", "group": "intelsat", "lat": 1.9690810594232668, "lon": 142.95106121527715, "alt_km": 35798.40555176206, "timestamp": "2025-12-20T05:41:49.685842+00:00", "meta": {"OBJECT_NAME": "INTELSAT 25 (IS-25)", "OBJECT_ID": "2008-034A", "EPOCH": "2025-12-19T18:15:00.764928", "MEAN_MOTION": 1.00270284, "ECCENTRICITY": 0.00047932, "INCLINATION": 2.2448, "RA_OF_ASC_NODE": 82.5753, "ARG_OF_PERICENTER": 187.0495, "MEAN_ANOMALY": 61.2247, "EPHEMERIS_TYPE": 0, "CLASSIFICATION_TYPE": "U", "NORAD_CAT_ID": 33153, "ELEMENT_SET_NO": 999, "REV_AT_EPOCH": 6389, "BSTAR": 0, "MEAN_MOTION_DOT": -2.02e-06, "MEAN_MOTION_DDOT": 0}, "tle": {"line1": "1 33153U 08034A   25353.76042552 -.00000202  00000+0  00000+0 0  9992", "line2": "2 33153   2.2448  82.5753 0004793 187.0495  61.2247  1.00270284 63896"}}, "geometry": {"type": "Point", "coordinates": [142.95106121527715, 1.9690810594232668]}}, {"type": "Feature", "properties": {"norad_id": 33376, "name": "GALAXY 19 (G-19)", "group": "intelsat", "lat": 0.02471112958059097, "lon": 77.52931825840912, "alt_km": 35796.42914576051, "timestamp": "2025-12-20T05:41:49.685854+00:00", "meta": {"OBJECT_NAME": "GALAXY 19 (G-19)", "OBJECT_ID": "2008-045A", "EPOCH": "2025-12-19T11:21:27.498816", "MEAN_MOTION": 1.00271614, "ECCENTRICITY": 0.0002508, "INCLINATION": 0.0157, "RA_OF_ASC_NODE": 292.5517, "ARG_OF_PERICENTER": 339.8224, "MEAN_ANOMALY": 249.3126, "EPHEMERIS_TYPE": 0, "CLASSIFICATION_TYPE": "U", "NORAD_CAT_ID": 33376, "ELEMENT_SET_NO": 999, "REV_AT_EPOCH": 6310, "BSTAR": 0, "MEAN_MOTION_DOT": -1.15e-06, "MEAN_MOTION_DDOT": 0}, "tle": {"line1": "1 33376U 08045A   25353.47323494 -.00000115  00000+0  00000+0 0  9999", "line2": "2 33376   0.0157 292.5517 0002508 339.8224 249.3126  1.00271614 63103"}}, "geometry": {"type": "Point", "coordinates": [77.52931825840912, 0.02471112958059097]}}, {"type": "Feature", "properties": {"norad_id": 35493, "name": "FM-5", "group": "intelsat", "lat": 0.02586009980319221, "lon": 88.36360109745047, "alt_km": 35784.73258083041, "timestamp": "2025-12-20T05:41:49.685866+00:00", "meta": {"OBJECT_NAME": "FM-5", "OBJECT_ID": "2009-034A", "EPOCH": "2025-12-19T11:28:13.399104", "MEAN_MOTION": 1.00269894, "ECCENTRICITY": 0.0001213, "INCLINATION": 0.0218, "RA_OF_ASC_NODE": 291.9988, "ARG_OF_PERICENTER": 224.3266, "MEAN_ANOMALY": 17.9165, "EPHEMERIS_TYPE": 0, "CLASSIFICATION_TYPE": "U", "NORAD_CAT_ID": 35493, "ELEMENT_SET_NO": 999, "REV_AT_EPOCH": 4484, "BSTAR": 0, "MEAN_MOTION_DOT": -1.75e-06, "MEAN_MOTION_DDOT": 0}, "tle": {"line1": "1 35493U 09034A   25353.47793286 -.00000175  00000+0  00000+0 0  9996", "line2": "2 35493   0.0218 291.9988 0001213 224.3266  17.9165  1.00269894 44843"}}, "geometry": {"type": "Point", "coordinates": [88.36360109745047, 0.02586009980319221]}}, {"type": "Feature", "properties": {"norad_id": 36097, "name": "INTELSAT 14 (IS-14)", "group": "intelsat", "lat": 0.027520017092977085, "lon": 129.51766991352105, "alt_km": 35795.235257626235, "timestamp": "2025-12-20T05:41:49.685877+00:00", "meta": {"OBJECT_NAME": "INTELSAT 14 (IS-14)", "OBJECT_ID": "2009-064A", "EPOCH": "2025-12-19T16:28:17.361984", "MEAN_MOTION": 1.00271255, "ECCENTRICITY": 0.00024367, "INCLINATION": 0.0128, "RA_OF_ASC_NODE": 351.0941, "ARG_OF_PERICENTER": 288.6596, "MEAN_ANOMALY": 10.8613, "EPHEMERIS_TYPE": 0, "CLASSIFICATION_TYPE": "U", "NORAD_CAT_ID": 36097, "ELEMENT_SET_NO": 999, "REV_AT_EPOCH": 5880, "BSTAR": 0, "MEAN_MOTION_DOT": -2.49e-06, "MEAN_MOTION_DDOT": 0}, "tle": {"line1": "1 36097U 09064A   25353.68631206 -.00000249  00000+0  00000+0 0  9998", "line2": "2 36097   0.0128 351.0941 0002436 288.6596  10.8613  1.00271255 58803"}}, "geometry": {"type": "Point", "coordinates": [129.51766991352105, 0.027520017092977085]}}, {"type": "Feature", "properties": {"norad_id": 36106, "name": "INTELSAT 15 (IS-15)", "group": "intelsat", "lat": -0.04327591208165276, "lon": -100.32556345743203, "alt_km": 35777.49774758039, "timestamp": "2025-12-20T05:41:49.685889+00:00", "meta": {"OBJECT_NAME": "INTELSAT 15 (IS-15)", "OBJECT_ID": "2009-067A", "EPOCH": "2025-12-19T20:17:41.790912", "MEAN_MOTION": 1.00272116, "ECCENTRICITY": 0.00021377, "INCLINATION": 0.0168, "RA_OF_ASC_NODE": 5.4687, "ARG_OF_PERICENTER": 274.0869, "MEAN_ANOMALY": 198.7176, "EPHEMERIS_TYPE": 0, "CLASSIFICATION_TYPE": "U", "NORAD_CAT_ID": 36106, "ELEMENT_SET_NO": 999, "REV_AT_EPOCH": 3943, "BSTAR": 0, "MEAN_MOTION_DOT": -1.61e-06, "MEAN_MOTION_DDOT": 0}, "tle": {"line1": "1 36106U 09067A   25353.84562258 -.00000161  00000+0  00000+0 0  9993", "line2": "2 36106   0.0168   5.4687 0002137 274.0869 198.7176  1.00272116 39430"}}, "geometry": {"type": "Point", "coordinates": [-100.32556345743203, -0.04327591208165276]}}, {"type": "Feature", "properties": {"norad_id": 36131, "name": "DIRECTV 12", "group": "intelsat", "lat": 0.00964337507205026, "lon": 71.82399766297844, "alt_km": 35785.45741720324, "timestamp": "2025-12-20T05:41:49.685902+00:00", "meta": {"OBJECT_NAME": "DIRECTV 12", "OBJECT_ID": "2009-075A", "EPOCH": "2025-12-19T13:24:30.815136", "MEAN_MOTION": 1.00274473, "ECCENTRICITY": 4.78e-05, "INCLINATION": 0.0149, "RA_OF_ASC_NODE": 93.7995, "ARG_OF_PERICENTER": 244.7113, "MEAN_ANOMALY": 208.3134, "EPHEMERIS_TYPE": 0, "CLASSIFICATION_TYPE": "U", "NORAD_CAT_ID": 36131, "ELEMENT_SET_NO": 999, "REV_AT_EPOCH": 4475, "BSTAR": 0, "MEAN_MOTION_DOT": -8e-07, "MEAN_MOTION_DDOT": 0}, "tle": {"line1": "1 36131U 09075A   25353.55868999 -.00000080  00000+0  00000+0 0  9999", "line2": "2 36131   0.0149  93.7995 0000478 244.7113 208.3134  1.00274473 44752"}}, "geometry": {"type": "Point", "coordinates": [71.82399766297844, 0.00964337507205026]}}, {"type": "Feature", "properties": {"norad_id": 36397, "name": "INTELSAT 16 (IS-16)", "group": "intelsat", "lat": 0.0335874435859865, "lon": 98.32843426235084, "alt_km": 35793.66910433132, "timestamp": "2025-12-20T05:41:49.685914+00:00", "meta": {"OBJECT_NAME": "INTELSAT 16 (IS-16)", "OBJECT_ID": "2010-006A", "EPOCH": "2025-12-19T18:02:02.008032", "MEAN_MOTION": 1.00272026, "ECCENTRICITY": 0.00018134, "INCLINATION": 0.0105, "RA_OF_ASC_NODE": 337.5743, "ARG_OF_PERICENTER": 292.9337, "MEAN_ANOMALY": 12.4053, "EPHEMERIS_TYPE": 0, "CLASSIFICATION_TYPE": "U", "NORAD_CAT_ID": 36397, "ELEMENT_SET_NO": 999, "REV_AT_EPOCH": 5785, "BSTAR": 0, "MEAN_MOTION_DOT": -2.2e-06, "MEAN_MOTION_DDOT": 0}, "tle": {"line1": "1 36397U 10006A   25353.75141213 -.00000220  00000+0  00000+0 0  9990", "line2": "2 36397   0.0105 337.5743 0001813 292.9337  12.4053  1.00272026 57856"}}, "geometry": {"type": "Point", "coordinates": [98.32843426235084, 0.0335874435859865]}}, {"type": "Feature", "properties": {"norad_id": 37185, "name": "XM-5", "group": "intelsat", "lat": 0.053323009753570405, "lon": 59.31453860062244, "alt_km": 35785.267583088214, "timestamp": "2025-12-20T05:41:49.685926+00:00", "meta": {"OBJECT_NAME": "XM-5", "OBJECT_ID": "2010-053A", "EPOCH": "2025-12-19T12:08:14.348832", "MEAN_MOTION": 1.00273261, "ECCENTRICITY": 0.0001971, "INCLINATION": 0.0647, "RA_OF_ASC_NODE": 271.3919, "ARG_OF_PERICENTER": 235.6232, "MEAN_ANOMALY": 8.2094, "EPHEMERIS_TYPE": 0, "CLASSIFICATION_TYPE": "U", "NORAD_CAT_ID": 37185, "ELEMENT_SET_NO": 999, "REV_AT_EPOCH": 5568, "BSTAR": 0, "MEAN_MOTION_DOT": 1e-08, "MEAN_MOTION_DDOT": 0}, "tle": {"line1": "1 37185U 10053A   25353.50572163  .00000001  00000+0  00000+0 0  9999", "line2": "2 37185   0.0647 271.3919 0001971 235.6232   8.2094  1.00273261 55685"}}, "geometry": {"type": "Point", "coordinates": [59.31453860062244, 0.053323009753570405]}}, {"type": "Feature", "properties": {"norad_id": 37238, "name": "INTELSAT 17 (IS-17)", "group": "intelsat", "lat": -0.014901312772317581, "lon": -119.5298664501355, "alt_km": 35778.44525725986, "timestamp": "2025-12-20T05:41:49.685938+00:00", "meta": {"OBJECT_NAME": "INTELSAT 17 (IS-17)", "OBJECT_ID": "2010-065B", "EPOCH": "2025-12-19T20:34:55.871904", "MEAN_MOTION": 1.00271342, "ECCENTRICITY": 0.00027901, "INCLINATION": 0.0274, "RA_OF_ASC_NODE": 66.7969, "ARG_OF_PERICENTER": 222.8909, "MEAN_ANOMALY": 173.7184, "EPHEMERIS_TYPE": 0, "CLASSIFICATION_TYPE": "U", "NORAD_CAT_ID": 37238, "ELEMENT_SET_NO": 999, "REV_AT_EPOCH": 5145, "BSTAR": 0, "MEAN_MOTION_DOT": 0, "MEAN_MOTION_DDOT": 0}, "tle": {"line1": "1 37238U 10065B   25353.85759111  .00000000  00000+0  00000+0 0  9998", "line2": "2 37238   0.0274  66.7969 0002790 222.8909 173.7184  1.00271342 51457"}}, "geometry": {"type": "Point", "coordinates": [-119.5298664501355, -0.014901312772317581]}}, {"type": "Feature", "properties": {"norad_id": 37392, "name": "INTELSAT 28 (IS-28)", "group": "intelsat", "lat": 1.152173803292774, "lon": 142.7900323036267, "alt_km": 35796.3638077326, "timestamp": "2025-12-20T05:41:49.685950+00:00", "meta": {"OBJECT_NAME": "INTELSAT 28 (IS-28)", "OBJECT_ID": "2011-016A", "EPOCH": "2025-12-19T18:14:53.276640", "MEAN_MOTION": 1.00270135, "ECCENTRICITY": 0.00036749, "INCLINATION": 1.3417, "RA_OF_ASC_NODE": 84.9812, "ARG_OF_PERICENTER": 187.4914, "MEAN_ANOMALY": 58.1626, "EPHEMERIS_TYPE": 0, "CLASSIFICATION_TYPE": "U", "NORAD_CAT_ID": 37392, "ELEMENT_SET_NO": 999, "REV_AT_EPOCH": 5148, "BSTAR": 0, "MEAN_MOTION_DOT": -2.02e-06, "MEAN_MOTION_DDOT": 0}, "tle": {"line1": "1 37392U 11016A   25353.76033885 -.00000202  00000+0  00000+0 0  9994", "line2": "2 37392   1.3417  84.9812 0003674 187.4914  58.1626  1.00270135 51483"}}, "geometry": {"type": "Point", "coordinates": [142.7900323036267, 1.152173803292774]}}]}